LINGQIAO VIDEO A        
1 40959U 15057B   26194.50439270  .00000508  00000+0  77955-4 0  9996
2 40959  97.6626 188.0096 0016469 178.4617 181.6648 14.77426260579292
LINGQIAO VIDEO B        
1 40960U 15057C   26194.54690186  .00000482  00000+0  74197-4 0  9993
2 40960  97.6592 189.2065 0016667 178.4194 181.7072 14.77531145579342
JILIN-1                 
1 40961U 15057D   26194.48091060  .00000412  00000+0  63468-4 0  9995
2 40961  97.6519 192.5437 0017062 172.3941 187.7533 14.78199866579490
FOX-1A (AO-85)          
1 40967U 15058D   26194.37655269  .00001690  00000+0  15942-3 0  9999
2 40967  64.7723 197.5870 0132208  46.4986 314.7024 14.91081725117476
SINOD-D 1               
1 40968U 15058E   26194.35026029  .00002930  00000+0  23839-3 0  9996
2 40968  64.7731 176.9685 0120896  42.8594 318.1865 14.96077409120571
ELEKTRO-L 2             
1 41105U 15074A   26194.41557660 -.00000126  00000+0  00000+0 0  9992
2 41105   6.7568  70.1954 0000973 213.8203 142.3782  1.00272170 38760
DAMPE                   
1 41173U 15078A   26194.51111762  .00000965  00000+0  34928-4 0  9992
2 41173  97.4562 200.1085 0011772 351.7843   8.3203 15.30851797588571
ORBCOMM FM110           
1 41182U 15081D   26193.51184114  .00000172  00000+0  72512-4 0  9997
2 41182  47.0008 241.6985 0003492 211.7770 148.2905 14.58916062561323
ORBCOMM FM112           
1 41184U 15081F   26194.30362164  .00000331  00000+0  10612-3 0  9999
2 41184  46.9979 146.7451 0003803 320.5231  39.5377 14.58937084562761
ORBCOMM FM113           
1 41185U 15081G   26194.28114764  .00000135  00000+0  64855-4 0  9999
2 41185  46.9998 147.2412 0002327 314.1982  45.8713 14.58880972562743
ORBCOMM FM108           
1 41187U 15081J   26194.03772684  .00000292  00000+0  97932-4 0  9991
2 41187  47.0053  59.9728 0002770 314.2400  45.8258 14.58908772563852
ORBCOMM FM117           
1 41188U 15081K   26194.00344233  .00000268  00000+0  93001-4 0  9990
2 41188  47.0016  58.7625 0003198 320.9684  39.0971 14.58895854563895
ORBCOMM FM116           
1 41189U 15081L   26194.25753558  .00000069  00000+0  50849-4 0  9994
2 41189  47.0013 147.3497 0001541 225.9507 134.1252 14.58904456562744
ZIYUAN 3-02 (ZY 3-02)   
1 41556U 16033A   26194.49959772  .00003011  00000+0  13691-3 0  9995
2 41556  97.3832 269.7677 0013889 190.8080 169.2859 15.21424245561983
CARTOSAT-2C             
1 41599U 16040A   26194.47218583  .00003247  00000+0  15713-3 0  9994
2 41599  97.4479 254.0866 0009721  50.9938 309.2160 15.19258376557706
LAPAN-A3                
1 41603U 16040E   26194.42803676  .00001933  00000+0  62416-4 0  9991
2 41603  97.1497 189.7157 0008231 283.7897  76.2430 15.33271266558836
GAOFEN-3                
1 41727U 16049A   26194.51697471  .00000074  00000+0  35704-4 0  9996
2 41727  98.4014 201.9055 0001788  85.6130 274.5264 14.42218899522443
CAS-2T & KS-1Q          
1 41847U 16066G   26194.21207593  .00000617  00000+0  94682-4 0  9990
2 41847  98.3814 269.6505 0342350  50.7667 312.3386 14.44767960508557
YUNHAI-1 01             
1 41857U 16068A   26194.49765051  .00000513  00000+0  20450-3 0  9997
2 41857  98.5847 205.2595 0003347 353.8558   6.2584 14.32722455505594
RESOURCESAT-2A          
1 41877U 16074A   26194.46419875  .00000417  00000+0  21033-3 0  9994
2 41877  98.7527 267.7526 0002500  32.6694 327.4638 14.21609574498035
TANSAT                  
1 41898U 16081A   26194.49748325  .00000277  00000+0  68252-4 0  9992
2 41898  98.5367 195.5336 0019329 225.6352 134.3264 14.59971161508461
JILIN-1 03              
1 41914U 17002B   26194.50416831  .00008156  00000+0  19183-3 0  9993
2 41914  97.1946 201.2287 0007943  83.8903 276.3249 15.42203638525912
CARTOSAT-2D             
1 41948U 17008A   26194.50396785  .00004017  00000+0  19358-3 0  9997
2 41948  97.4099 253.3159 0005826 144.1131 216.0496 15.19280019521574
CARTOSAT-2E             
1 42767U 17036C   26194.45583910  .00002739  00000+0  13318-3 0  9999
2 42767  97.4267 253.8234 0003084 195.1223 164.9920 15.19246491502132
